ONEWEB-0228             
1 48780U 21045P   24244.39275856  .00000264  00000+0  66818-3 0  9993
2 48780  87.9061  29.4763 0001658  98.1825 261.9493 13.15547526158236
